CCSDS_OMM_VERS = 2.0
CREATION_DATE  = 
ORIGINATOR     = 

OBJECT_NAME    = STARLINK-36568
OBJECT_ID      = 2026-040C
CENTER_NAME    = EARTH
REF_FRAME      = TEME
TIME_SYSTEM    = UTC
MEAN_ELEMENT_THEORY = SGP/SGP4

EPOCH          = 2026-03-11T18:00:01.999296
MEAN_MOTION    = 16.01130409
ECCENTRICITY   = .0001155
INCLINATION    = 97.2753
RA_OF_ASC_NODE = 19.1163
ARG_OF_PERICENTER = 84.8720
MEAN_ANOMALY   = 45.3600

EPHEMERIS_TYPE = 0
CLASSIFICATION_TYPE = U
NORAD_CAT_ID   = 68017
ELEMENT_SET_NO = 999
REV_AT_EPOCH   = 275
BSTAR          = -.19352E-2
MEAN_MOTION_DOT = -.1042137E-1
MEAN_MOTION_DDOT = .35837E-3

CCSDS_OMM_VERS = 2.0
CREATION_DATE  = 
ORIGINATOR     = 

OBJECT_NAME    = STARLINK-36930
OBJECT_ID      = 2026-040D
CENTER_NAME    = EARTH
REF_FRAME      = TEME
TIME_SYSTEM    = UTC
MEAN_ELEMENT_THEORY = SGP/SGP4

EPOCH          = 2026-03-11T18:00:01.999296
MEAN_MOTION    = 16.00922222
ECCENTRICITY   = .0001119
INCLINATION    = 97.2752
RA_OF_ASC_NODE = 19.1137
ARG_OF_PERICENTER = 73.1712
MEAN_ANOMALY   = 50.6685

EPHEMERIS_TYPE = 0
CLASSIFICATION_TYPE = U
NORAD_CAT_ID   = 68018
ELEMENT_SET_NO = 999
REV_AT_EPOCH   = 275
BSTAR          = -.19369E-2
MEAN_MOTION_DOT = -.1030809E-1
MEAN_MOTION_DDOT = .35036E-3

CCSDS_OMM_VERS = 2.0
CREATION_DATE  = 
ORIGINATOR     = 

OBJECT_NAME    = STARLINK-36921
OBJECT_ID      = 2026-040E
CENTER_NAME    = EARTH
REF_FRAME      = TEME
TIME_SYSTEM    = UTC
MEAN_ELEMENT_THEORY = SGP/SGP4

EPOCH          = 2026-03-11T06:00:02.000160
MEAN_MOTION    = 16.02423775
ECCENTRICITY   = .00011063
INCLINATION    = 97.2764
RA_OF_ASC_NODE = 18.5726
ARG_OF_PERICENTER = 121.0334
MEAN_ANOMALY   = 13.3751

EPHEMERIS_TYPE = 0
CLASSIFICATION_TYPE = U
NORAD_CAT_ID   = 68019
ELEMENT_SET_NO = 999
REV_AT_EPOCH   = 267
BSTAR          = -.18133903E-2
MEAN_MOTION_DOT = -.1052306E-1
MEAN_MOTION_DDOT = .37033585E-3

CCSDS_OMM_VERS = 2.0
CREATION_DATE  = 
ORIGINATOR     = 

OBJECT_NAME    = STARLINK-36928
OBJECT_ID      = 2026-040F
CENTER_NAME    = EARTH
REF_FRAME      = TEME
TIME_SYSTEM    = UTC
MEAN_ELEMENT_THEORY = SGP/SGP4

EPOCH          = 2026-03-11T18:00:01.999296
MEAN_MOTION    = 16.01223006
ECCENTRICITY   = .000121
INCLINATION    = 97.2752
RA_OF_ASC_NODE = 19.1168
ARG_OF_PERICENTER = 88.5515
MEAN_ANOMALY   = 44.1207

EPHEMERIS_TYPE = 0
CLASSIFICATION_TYPE = U
NORAD_CAT_ID   = 68020
ELEMENT_SET_NO = 999
REV_AT_EPOCH   = 275
BSTAR          = -.19366E-2
MEAN_MOTION_DOT = -.1048451E-1
MEAN_MOTION_DDOT = .36279E-3

CCSDS_OMM_VERS = 2.0
CREATION_DATE  = 
ORIGINATOR     = 

OBJECT_NAME    = STARLINK-36858
OBJECT_ID      = 2026-040G
CENTER_NAME    = EARTH
REF_FRAME      = TEME
TIME_SYSTEM    = UTC
MEAN_ELEMENT_THEORY = SGP/SGP4

EPOCH          = 2026-03-11T20:21:04.253760
MEAN_MOTION    = 16.07610848
ECCENTRICITY   = .0001743
INCLINATION    = 97.2746
RA_OF_ASC_NODE = 19.2325
ARG_OF_PERICENTER = 168.4727
MEAN_ANOMALY   = 191.6596

EPHEMERIS_TYPE = 0
CLASSIFICATION_TYPE = U
NORAD_CAT_ID   = 68021
ELEMENT_SET_NO = 999
REV_AT_EPOCH   = 168
BSTAR          = .16514E-2
MEAN_MOTION_DOT = .1293419E-1
MEAN_MOTION_DDOT = .10411E-2

CCSDS_OMM_VERS = 2.0
CREATION_DATE  = 
ORIGINATOR     = 

OBJECT_NAME    = STARLINK-36916
OBJECT_ID      = 2026-040H
CENTER_NAME    = EARTH
REF_FRAME      = TEME
TIME_SYSTEM    = UTC
MEAN_ELEMENT_THEORY = SGP/SGP4

EPOCH          = 2026-03-11T10:00:01.999584
MEAN_MOTION    = 16.02328708
ECCENTRICITY   = .0000935
INCLINATION    = 97.2761
RA_OF_ASC_NODE = 18.7570
ARG_OF_PERICENTER = 93.1787
MEAN_ANOMALY   = 287.9719

EPHEMERIS_TYPE = 0
CLASSIFICATION_TYPE = U
NORAD_CAT_ID   = 68022
ELEMENT_SET_NO = 999
REV_AT_EPOCH   = 270
BSTAR          = -.20475E-2
MEAN_MOTION_DOT = -.1180295E-1
MEAN_MOTION_DDOT = .45743E-3

CCSDS_OMM_VERS = 2.0
CREATION_DATE  = 
ORIGINATOR     = 

OBJECT_NAME    = STARLINK-36871
OBJECT_ID      = 2026-040J
CENTER_NAME    = EARTH
REF_FRAME      = TEME
TIME_SYSTEM    = UTC
MEAN_ELEMENT_THEORY = SGP/SGP4

EPOCH          = 2026-03-11T18:00:01.999296
MEAN_MOTION    = 16.01636460
ECCENTRICITY   = .000118
INCLINATION    = 97.2750
RA_OF_ASC_NODE = 19.1221
ARG_OF_PERICENTER = 78.6663
MEAN_ANOMALY   = 66.6643

EPHEMERIS_TYPE = 0
CLASSIFICATION_TYPE = U
NORAD_CAT_ID   = 68023
ELEMENT_SET_NO = 999
REV_AT_EPOCH   = 275
BSTAR          = -.18839E-2
MEAN_MOTION_DOT = -.1044478E-1
MEAN_MOTION_DDOT = .36196E-3

CCSDS_OMM_VERS = 2.0
CREATION_DATE  = 
ORIGINATOR     = 

OBJECT_NAME    = STARLINK-36891
OBJECT_ID      = 2026-040K
CENTER_NAME    = EARTH
REF_FRAME      = TEME
TIME_SYSTEM    = UTC
MEAN_ELEMENT_THEORY = SGP/SGP4

EPOCH          = 2026-03-11T18:00:01.999296
MEAN_MOTION    = 16.01754801
ECCENTRICITY   = .0001119
INCLINATION    = 97.2749
RA_OF_ASC_NODE = 19.1240
ARG_OF_PERICENTER = 82.6234
MEAN_ANOMALY   = 66.6323

EPHEMERIS_TYPE = 0
CLASSIFICATION_TYPE = U
NORAD_CAT_ID   = 68024
ELEMENT_SET_NO = 999
REV_AT_EPOCH   = 275
BSTAR          = -.18621E-2
MEAN_MOTION_DOT = -.1039542E-1
MEAN_MOTION_DDOT = .35928E-3

CCSDS_OMM_VERS = 2.0
CREATION_DATE  = 
ORIGINATOR     = 

OBJECT_NAME    = STARLINK-36378
OBJECT_ID      = 2026-040L
CENTER_NAME    = EARTH
REF_FRAME      = TEME
TIME_SYSTEM    = UTC
MEAN_ELEMENT_THEORY = SGP/SGP4

EPOCH          = 2026-03-11T18:00:01.999296
MEAN_MOTION    = 16.02003198
ECCENTRICITY   = .0001069
INCLINATION    = 97.2762
RA_OF_ASC_NODE = 19.1273
ARG_OF_PERICENTER = 82.1628
MEAN_ANOMALY   = 74.0119

EPHEMERIS_TYPE = 0
CLASSIFICATION_TYPE = U
NORAD_CAT_ID   = 68025
ELEMENT_SET_NO = 999
REV_AT_EPOCH   = 270
BSTAR          = -.19704E-2
MEAN_MOTION_DOT = -.1115186E-1
MEAN_MOTION_DDOT = .41032E-3

CCSDS_OMM_VERS = 2.0
CREATION_DATE  = 
ORIGINATOR     = 

OBJECT_NAME    = STARLINK-36884
OBJECT_ID      = 2026-040M
CENTER_NAME    = EARTH
REF_FRAME      = TEME
TIME_SYSTEM    = UTC
MEAN_ELEMENT_THEORY = SGP/SGP4

EPOCH          = 2026-03-11T18:00:01.999296
MEAN_MOTION    = 16.01880636
ECCENTRICITY   = .0001088
INCLINATION    = 97.2756
RA_OF_ASC_NODE = 19.1252
ARG_OF_PERICENTER = 82.4208
MEAN_ANOMALY   = 70.3983

EPHEMERIS_TYPE = 0
CLASSIFICATION_TYPE = U
NORAD_CAT_ID   = 68026
ELEMENT_SET_NO = 999
REV_AT_EPOCH   = 275
BSTAR          = -.19161E-2
MEAN_MOTION_DOT = -.107714E-1
MEAN_MOTION_DDOT = .38426E-3

CCSDS_OMM_VERS = 2.0
CREATION_DATE  = 
ORIGINATOR     = 

OBJECT_NAME    = STARLINK-36940
OBJECT_ID      = 2026-040N
CENTER_NAME    = EARTH
REF_FRAME      = TEME
TIME_SYSTEM    = UTC
MEAN_ELEMENT_THEORY = SGP/SGP4

EPOCH          = 2026-03-11T18:00:01.999296
MEAN_MOTION    = 16.03322576
ECCENTRICITY   = .0001191
INCLINATION    = 97.2778
RA_OF_ASC_NODE = 19.1535
ARG_OF_PERICENTER = 77.9679
MEAN_ANOMALY   = 140.5274

EPHEMERIS_TYPE = 0
CLASSIFICATION_TYPE = U
NORAD_CAT_ID   = 68027
ELEMENT_SET_NO = 999
REV_AT_EPOCH   = 285
BSTAR          = -.21727E-2
MEAN_MOTION_DOT = -.1326001E-1
MEAN_MOTION_DDOT = .57396E-3

CCSDS_OMM_VERS = 2.0
CREATION_DATE  = 
ORIGINATOR     = 

OBJECT_NAME    = STARLINK-36253
OBJECT_ID      = 2026-040P
CENTER_NAME    = EARTH
REF_FRAME      = TEME
TIME_SYSTEM    = UTC
MEAN_ELEMENT_THEORY = SGP/SGP4

EPOCH          = 2026-03-11T18:00:01.999296
MEAN_MOTION    = 15.84808689
ECCENTRICITY   = .000155
INCLINATION    = 97.2775
RA_OF_ASC_NODE = 19.0266
ARG_OF_PERICENTER = 103.8018
MEAN_ANOMALY   = 188.0711

EPHEMERIS_TYPE = 0
CLASSIFICATION_TYPE = U
NORAD_CAT_ID   = 68028
ELEMENT_SET_NO = 999
REV_AT_EPOCH   = 285
BSTAR          = -.10676E-1
MEAN_MOTION_DOT = -.2121543E-1
MEAN_MOTION_DDOT = 0

